CCSDS_OMM_VERS = 2.0
CREATION_DATE  = 
ORIGINATOR     = 

OBJECT_NAME    = STARLINK-36873
OBJECT_ID      = 2026-037S
CENTER_NAME    = EARTH
REF_FRAME      = TEME
TIME_SYSTEM    = UTC
MEAN_ELEMENT_THEORY = SGP/SGP4

EPOCH          = 2026-03-13T16:05:40.385184
MEAN_MOTION    = 15.82119951
ECCENTRICITY   = .00018582
INCLINATION    = 42.9980
RA_OF_ASC_NODE = 174.0083
ARG_OF_PERICENTER = 265.1031
MEAN_ANOMALY   = 94.9629

EPHEMERIS_TYPE = 0
CLASSIFICATION_TYPE = U
NORAD_CAT_ID   = 67948
ELEMENT_SET_NO = 999
REV_AT_EPOCH   = 388
BSTAR          = .13589287E-2
MEAN_MOTION_DOT = .297088E-2
MEAN_MOTION_DDOT = 0

CCSDS_OMM_VERS = 2.0
CREATION_DATE  = 
ORIGINATOR     = 

OBJECT_NAME    = STARLINK-36863
OBJECT_ID      = 2026-037T
CENTER_NAME    = EARTH
REF_FRAME      = TEME
TIME_SYSTEM    = UTC
MEAN_ELEMENT_THEORY = SGP/SGP4

EPOCH          = 2026-03-13T17:35:30.593472
MEAN_MOTION    = 15.82094711
ECCENTRICITY   = .00013551
INCLINATION    = 42.9983
RA_OF_ASC_NODE = 173.6154
ARG_OF_PERICENTER = 267.8072
MEAN_ANOMALY   = 92.2645

EPHEMERIS_TYPE = 0
CLASSIFICATION_TYPE = U
NORAD_CAT_ID   = 67949
ELEMENT_SET_NO = 999
REV_AT_EPOCH   = 389
BSTAR          = .10976782E-2
MEAN_MOTION_DOT = .237935E-2
MEAN_MOTION_DDOT = 0

CCSDS_OMM_VERS = 2.0
CREATION_DATE  = 
ORIGINATOR     = 

OBJECT_NAME    = STARLINK-36887
OBJECT_ID      = 2026-037U
CENTER_NAME    = EARTH
REF_FRAME      = TEME
TIME_SYSTEM    = UTC
MEAN_ELEMENT_THEORY = SGP/SGP4

EPOCH          = 2026-03-13T16:03:30.995136
MEAN_MOTION    = 15.82125043
ECCENTRICITY   = .00015266
INCLINATION    = 42.9981
RA_OF_ASC_NODE = 173.9960
ARG_OF_PERICENTER = 281.5122
MEAN_ANOMALY   = 78.5579

EPHEMERIS_TYPE = 0
CLASSIFICATION_TYPE = U
NORAD_CAT_ID   = 67950
ELEMENT_SET_NO = 999
REV_AT_EPOCH   = 388
BSTAR          = .13195396E-2
MEAN_MOTION_DOT = .28823E-2
MEAN_MOTION_DDOT = 0

CCSDS_OMM_VERS = 2.0
CREATION_DATE  = 
ORIGINATOR     = 

OBJECT_NAME    = STARLINK-36897
OBJECT_ID      = 2026-037V
CENTER_NAME    = EARTH
REF_FRAME      = TEME
TIME_SYSTEM    = UTC
MEAN_ELEMENT_THEORY = SGP/SGP4

EPOCH          = 2026-03-13T17:33:20.697984
MEAN_MOTION    = 15.82098128
ECCENTRICITY   = .00018388
INCLINATION    = 42.9988
RA_OF_ASC_NODE = 173.6029
ARG_OF_PERICENTER = 255.5366
MEAN_ANOMALY   = 104.5302

EPHEMERIS_TYPE = 0
CLASSIFICATION_TYPE = U
NORAD_CAT_ID   = 67951
ELEMENT_SET_NO = 999
REV_AT_EPOCH   = 389
BSTAR          = .95802742E-3
MEAN_MOTION_DOT = .206881E-2
MEAN_MOTION_DDOT = 0

CCSDS_OMM_VERS = 2.0
CREATION_DATE  = 
ORIGINATOR     = 

OBJECT_NAME    = STARLINK-36381
OBJECT_ID      = 2026-037W
CENTER_NAME    = EARTH
REF_FRAME      = TEME
TIME_SYSTEM    = UTC
MEAN_ELEMENT_THEORY = SGP/SGP4

EPOCH          = 2026-03-13T17:31:11.593056
MEAN_MOTION    = 15.82099651
ECCENTRICITY   = .00017299
INCLINATION    = 42.9987
RA_OF_ASC_NODE = 173.5905
ARG_OF_PERICENTER = 291.3883
MEAN_ANOMALY   = 68.6804

EPHEMERIS_TYPE = 0
CLASSIFICATION_TYPE = U
NORAD_CAT_ID   = 67952
ELEMENT_SET_NO = 999
REV_AT_EPOCH   = 389
BSTAR          = .10697165E-2
MEAN_MOTION_DOT = .231748E-2
MEAN_MOTION_DDOT = 0

CCSDS_OMM_VERS = 2.0
CREATION_DATE  = 
ORIGINATOR     = 

OBJECT_NAME    = STARLINK-36824
OBJECT_ID      = 2026-037X
CENTER_NAME    = EARTH
REF_FRAME      = TEME
TIME_SYSTEM    = UTC
MEAN_ELEMENT_THEORY = SGP/SGP4

EPOCH          = 2026-03-13T17:32:16.126944
MEAN_MOTION    = 15.82152531
ECCENTRICITY   = .00017963
INCLINATION    = 42.9982
RA_OF_ASC_NODE = 173.5968
ARG_OF_PERICENTER = 257.0377
MEAN_ANOMALY   = 103.0294

EPHEMERIS_TYPE = 0
CLASSIFICATION_TYPE = U
NORAD_CAT_ID   = 67953
ELEMENT_SET_NO = 999
REV_AT_EPOCH   = 389
BSTAR          = .16096874E-2
MEAN_MOTION_DOT = .354937E-2
MEAN_MOTION_DDOT = 0

CCSDS_OMM_VERS = 2.0
CREATION_DATE  = 
ORIGINATOR     = 

OBJECT_NAME    = STARLINK-36869
OBJECT_ID      = 2026-037Y
CENTER_NAME    = EARTH
REF_FRAME      = TEME
TIME_SYSTEM    = UTC
MEAN_ELEMENT_THEORY = SGP/SGP4

EPOCH          = 2026-03-13T17:30:06.004224
MEAN_MOTION    = 15.82130344
ECCENTRICITY   = .00022539
INCLINATION    = 42.9984
RA_OF_ASC_NODE = 173.5836
ARG_OF_PERICENTER = 266.2770
MEAN_ANOMALY   = 93.7844

EPHEMERIS_TYPE = 0
CLASSIFICATION_TYPE = U
NORAD_CAT_ID   = 67954
ELEMENT_SET_NO = 999
REV_AT_EPOCH   = 389
BSTAR          = .12503337E-2
MEAN_MOTION_DOT = .272663E-2
MEAN_MOTION_DDOT = 0

CCSDS_OMM_VERS = 2.0
CREATION_DATE  = 
ORIGINATOR     = 

OBJECT_NAME    = STARLINK-36872
OBJECT_ID      = 2026-037Z
CENTER_NAME    = EARTH
REF_FRAME      = TEME
TIME_SYSTEM    = UTC
MEAN_ELEMENT_THEORY = SGP/SGP4

EPOCH          = 2026-03-13T17:27:57.274272
MEAN_MOTION    = 15.82100578
ECCENTRICITY   = .00017999
INCLINATION    = 42.9986
RA_OF_ASC_NODE = 173.5707
ARG_OF_PERICENTER = 267.3711
MEAN_ANOMALY   = 92.6955

EPHEMERIS_TYPE = 0
CLASSIFICATION_TYPE = U
NORAD_CAT_ID   = 67955
ELEMENT_SET_NO = 999
REV_AT_EPOCH   = 389
BSTAR          = .1168866E-2
MEAN_MOTION_DOT = .253947E-2
MEAN_MOTION_DDOT = 0

CCSDS_OMM_VERS = 2.0
CREATION_DATE  = 
ORIGINATOR     = 

OBJECT_NAME    = STARLINK-36918
OBJECT_ID      = 2026-037AA
CENTER_NAME    = EARTH
REF_FRAME      = TEME
TIME_SYSTEM    = UTC
MEAN_ELEMENT_THEORY = SGP/SGP4

EPOCH          = 2026-03-13T17:26:52.568448
MEAN_MOTION    = 15.82103710
ECCENTRICITY   = .00014993
INCLINATION    = 42.9985
RA_OF_ASC_NODE = 173.5651
ARG_OF_PERICENTER = 278.1110
MEAN_ANOMALY   = 81.9592

EPHEMERIS_TYPE = 0
CLASSIFICATION_TYPE = U
NORAD_CAT_ID   = 67956
ELEMENT_SET_NO = 999
REV_AT_EPOCH   = 389
BSTAR          = .10698888E-2
MEAN_MOTION_DOT = .23183E-2
MEAN_MOTION_DDOT = 0

CCSDS_OMM_VERS = 2.0
CREATION_DATE  = 
ORIGINATOR     = 

OBJECT_NAME    = STARLINK-36829
OBJECT_ID      = 2026-037AB
CENTER_NAME    = EARTH
REF_FRAME      = TEME
TIME_SYSTEM    = UTC
MEAN_ELEMENT_THEORY = SGP/SGP4

EPOCH          = 2026-03-13T17:29:02.078592
MEAN_MOTION    = 15.82099793
ECCENTRICITY   = .00013962
INCLINATION    = 42.9987
RA_OF_ASC_NODE = 173.5776
ARG_OF_PERICENTER = 271.3183
MEAN_ANOMALY   = 88.7529

EPHEMERIS_TYPE = 0
CLASSIFICATION_TYPE = U
NORAD_CAT_ID   = 67957
ELEMENT_SET_NO = 999
REV_AT_EPOCH   = 389
BSTAR          = .98552204E-3
MEAN_MOTION_DOT = .212999E-2
MEAN_MOTION_DDOT = 0

CCSDS_OMM_VERS = 2.0
CREATION_DATE  = 
ORIGINATOR     = 

OBJECT_NAME    = STARLINK-36799
OBJECT_ID      = 2026-037AC
CENTER_NAME    = EARTH
REF_FRAME      = TEME
TIME_SYSTEM    = UTC
MEAN_ELEMENT_THEORY = SGP/SGP4

EPOCH          = 2026-03-13T17:25:47.749440
MEAN_MOTION    = 15.82080592
ECCENTRICITY   = .00015813
INCLINATION    = 42.9982
RA_OF_ASC_NODE = 173.5589
ARG_OF_PERICENTER = 257.5210
MEAN_ANOMALY   = 102.5485

EPHEMERIS_TYPE = 0
CLASSIFICATION_TYPE = U
NORAD_CAT_ID   = 67958
ELEMENT_SET_NO = 999
REV_AT_EPOCH   = 389
BSTAR          = .86134791E-3
MEAN_MOTION_DOT = .185328E-2
MEAN_MOTION_DDOT = 0

CCSDS_OMM_VERS = 2.0
CREATION_DATE  = 
ORIGINATOR     = 

OBJECT_NAME    = STARLINK-36834
OBJECT_ID      = 2026-037AD
CENTER_NAME    = EARTH
REF_FRAME      = TEME
TIME_SYSTEM    = UTC
MEAN_ELEMENT_THEORY = SGP/SGP4

EPOCH          = 2026-03-13T17:23:38.471712
MEAN_MOTION    = 15.82088912
ECCENTRICITY   = .00017964
INCLINATION    = 42.9988
RA_OF_ASC_NODE = 173.5461
ARG_OF_PERICENTER = 246.7396
MEAN_ANOMALY   = 113.3287

EPHEMERIS_TYPE = 0
CLASSIFICATION_TYPE = U
NORAD_CAT_ID   = 67959
ELEMENT_SET_NO = 999
REV_AT_EPOCH   = 389
BSTAR          = .11039586E-2
MEAN_MOTION_DOT = .239274E-2
MEAN_MOTION_DDOT = 0

CCSDS_OMM_VERS = 2.0
CREATION_DATE  = 
ORIGINATOR     = 

OBJECT_NAME    = STARLINK-36841
OBJECT_ID      = 2026-037AE
CENTER_NAME    = EARTH
REF_FRAME      = TEME
TIME_SYSTEM    = UTC
MEAN_ELEMENT_THEORY = SGP/SGP4

EPOCH          = 2026-03-13T17:24:43.039296
MEAN_MOTION    = 15.82122890
ECCENTRICITY   = .00018634
INCLINATION    = 42.9987
RA_OF_ASC_NODE = 173.5523
ARG_OF_PERICENTER = 248.5040
MEAN_ANOMALY   = 111.5633

EPHEMERIS_TYPE = 0
CLASSIFICATION_TYPE = U
NORAD_CAT_ID   = 67960
ELEMENT_SET_NO = 999
REV_AT_EPOCH   = 389
BSTAR          = .13656279E-2
MEAN_MOTION_DOT = .29865E-2
MEAN_MOTION_DDOT = 0

CCSDS_OMM_VERS = 2.0
CREATION_DATE  = 
ORIGINATOR     = 

OBJECT_NAME    = STARLINK-36912
OBJECT_ID      = 2026-038A
CENTER_NAME    = EARTH
REF_FRAME      = TEME
TIME_SYSTEM    = UTC
MEAN_ELEMENT_THEORY = SGP/SGP4

EPOCH          = 2026-03-13T22:00:01.999584
MEAN_MOTION    = 15.75183194
ECCENTRICITY   = .00007827
INCLINATION    = 97.2837
RA_OF_ASC_NODE = 83.4306
ARG_OF_PERICENTER = 101.3203
MEAN_ANOMALY   = 203.5933

EPHEMERIS_TYPE = 0
CLASSIFICATION_TYPE = U
NORAD_CAT_ID   = 67961
ELEMENT_SET_NO = 999
REV_AT_EPOCH   = 387
BSTAR          = -.24318216E-3
MEAN_MOTION_DOT = -.36236E-3
MEAN_MOTION_DDOT = 0

CCSDS_OMM_VERS = 2.0
CREATION_DATE  = 
ORIGINATOR     = 

OBJECT_NAME    = STARLINK-36881
OBJECT_ID      = 2026-038B
CENTER_NAME    = EARTH
REF_FRAME      = TEME
TIME_SYSTEM    = UTC
MEAN_ELEMENT_THEORY = SGP/SGP4

EPOCH          = 2026-03-13T22:00:01.999584
MEAN_MOTION    = 15.75185512
ECCENTRICITY   = .0001044
INCLINATION    = 97.2839
RA_OF_ASC_NODE = 83.4334
ARG_OF_PERICENTER = 90.2116
MEAN_ANOMALY   = 220.7028

EPHEMERIS_TYPE = 0
CLASSIFICATION_TYPE = U
NORAD_CAT_ID   = 67962
ELEMENT_SET_NO = 999
REV_AT_EPOCH   = 387
BSTAR          = -.29775823E-3
MEAN_MOTION_DOT = -.44302E-3
MEAN_MOTION_DDOT = 0

